[{"OBJECT_NAME":"STARLINK-30376","OBJECT_ID":"2023-134M","EPOCH":"2026-03-09T09:17:58.168320","MEAN_MOTION":15.26735214,"ECCENTRICITY":0.00017213,"INCLINATION":42.9998,"RA_OF_ASC_NODE":195.9286,"ARG_OF_PERICENTER":263.6896,"MEAN_ANOMALY":96.3759,"EPHEMERIS_TYPE":0,"CLASSIFICATION_TYPE":"U","NORAD_CAT_ID":57782,"ELEMENT_SET_NO":999,"REV_AT_EPOCH":13946,"BSTAR":-0.00011319869,"MEAN_MOTION_DOT":-3.295e-5,"MEAN_MOTION_DDOT":0},{"OBJECT_NAME":"FLOCK 4G-10","OBJECT_ID":"2025-009BP","EPOCH":"2026-03-09T16:59:55.292640","MEAN_MOTION":15.27155944,"ECCENTRICITY":0.00034694,"INCLINATION":97.3967,"RA_OF_ASC_NODE":150.5883,"ARG_OF_PERICENTER":341.4844,"MEAN_ANOMALY":18.6269,"EPHEMERIS_TYPE":0,"CLASSIFICATION_TYPE":"U","NORAD_CAT_ID":62670,"ELEMENT_SET_NO":999,"REV_AT_EPOCH":12134,"BSTAR":0.00052624432,"MEAN_MOTION_DOT":0.00013952,"MEAN_MOTION_DDOT":0}]
